NORAD_CAT_ID,OBJECT_NAME,OBJECT_TYPE,EPOCH,MEAN_MOTION,ECCENTRICITY,INCLINATION,RA_OF_ASC_NODE,ARG_OF_PERICENTER,MEAN_ANOMALY,BSTAR,MEAN_MOTION_DOT,MEAN_MOTION_DDOT,TLE_LINE0,TLE_LINE1,TLE_LINE2,SEMIMAJOR_AXIS,PERIOD,APOGEE,PERIGEE,DECAYED
49755.0,STARLINK-3210,PAYLOAD,2021-12-08 14:00:01,15.40497513,5.550000000000003e-05,53.2162,290.7274,354.8154,287.3293,-0.00019538,-8.438e-05,0.0,0 STARLINK-3210,1 49755U 21115AH  21342.58334491 -.00008438  00000-0 -19538-3 0  9993,2 49755  53.2162 290.7274 0000555 354.8154 287.3293 15.40497513  2136,6822.776999999999,93.476,445.021,444.263,0.0
49755.0,STARLINK-3210,PAYLOAD,2021-12-08 22:00:00,15.40500772,5.13e-05,53.2164,289.156,21.5459,310.2247,-0.0006926,-0.00028813,0.0,0 STARLINK-3210,1 49755U 21115AH  21342.91667824 -.00028813  00000-0 -69260-3 0  9995,2 49755  53.2164 289.1560 0000513  21.5459 310.2247 15.40500772  1369,6822.767,93.476,444.982,444.282,0.0
49755.0,STARLINK-3210,PAYLOAD,2021-12-09 12:00:00,15.40481287,8.25e-05,53.2158,286.4085,25.3035,303.2783,-0.0013328,-0.00054854,0.0,0 STARLINK-3210,1 49755U 21115AH  21343.50001157 -.00054854  00000-0 -13328-2 0  9999,2 49755  53.2158 286.4085 0000825  25.3035 303.2783 15.40481287  2279,6822.825,93.477,445.253,444.127,0.0
49755.0,STARLINK-3210,PAYLOAD,2021-12-09 22:00:00,15.40469061,8.03e-05,53.2159,284.4448,37.5578,83.00200000000002,-5.4565e-05,-2.646e-05,0.0,0 STARLINK-3210,1 49755U 21115AH  21343.91667824 -.00002646  00000-0 -54565-4 0  9995,2 49755  53.2159 284.4448 0000803  37.5578  83.0020 15.40469061  1524,6822.861,93.478,445.274,444.17800000000005,0.0
49755.0,STARLINK-3210,PAYLOAD,2021-12-10 14:00:01,15.40454382,9.34e-05,53.2153,281.3037,37.8234,181.935,-5.5209e-05,-2.672e-05,0.0,0 STARLINK-3210,1 49755U 21115AH  21344.58334491 -.00002672  00000-0 -55209-4 0  9995,2 49755  53.2153 281.3037 0000934  37.8234 181.9350 15.40454382  1620,6822.904,93.479,445.407,444.132,0.0
49755.0,STARLINK-3210,PAYLOAD,2021-12-10 22:00:00,15.40473477,9.43e-05,53.2151,279.7334,45.3634,223.969,-0.00015125,-6.620000000000001e-05,0.0,0 STARLINK-3210,1 49755U 21115AH  21344.91667824 -.00006620  00000-0 -15125-3 0  9990,2 49755  53.2151 279.7334 0000943  45.3634 223.9690 15.40473477  1672,6822.848000000001,93.478,445.356,444.07,0.0
49755.0,STARLINK-3210,PAYLOAD,2021-12-11 00:00:00,15.40479737,0.0001022,53.215,279.3413,41.705,330.0262,-0.00057361,-0.00023931,0.0,0 STARLINK-3210,1 49755U 21115AH  21345.00001157 -.00023931  00000-0 -57361-3 0  9994,2 49755  53.2150 279.3413 0001022  41.7050 330.0262 15.40479737  2509,6822.829000000002,93.477,445.392,443.997,0.0
49755.0,STARLINK-3210,PAYLOAD,2021-12-11 14:00:01,15.40446688,0.0001033,53.2146,276.5919,48.2083,320.33,0.00050631,0.00020463,0.0,0 STARLINK-3210,1 49755U 21115AH  21345.58334491  .00020463  00000-0  50631-3 0  9995,2 49755  53.2146 276.5919 0001033  48.2083 320.3300 15.40446688  1787,6822.927,93.479,445.497,444.087,0.0
49755.0,STARLINK-3210,PAYLOAD,2021-12-11 22:00:00,15.4048677,0.000107,53.2147,275.0216,50.3366,7.7811,-0.00026063,-0.00011114,0.0,0 STARLINK-3210,1 49755U 21115AH  21345.91667824 -.00011114  00000-0 -26063-3 0  9998,2 49755  53.2147 275.0216 0001070  50.3366   7.7811 15.40486770  2646,6822.809,93.477,445.404,443.944,0.0
49755.0,STARLINK-3210,PAYLOAD,2021-12-12 14:00:01,15.40464753,0.0001182,53.2146,271.8798,52.6803,104.665,-0.00036334,-0.00015316,0.0,0 STARLINK-3210,1 49755U 21115AH  21346.58334491 -.00015316  00000-0 -36334-3 0  9993,2 49755  53.2146 271.8798 0001182  52.6803 104.6650 15.40464753  1935,6822.874,93.478,445.545,443.932,0.0
49755.0,STARLINK-3210,PAYLOAD,2021-12-12 22:00:01,15.4046897,0.0001315999999999,53.2149,270.3095,57.1072,149.889,-0.00013357,-5.893e-05,0.0,0 STARLINK-3210,1 49755U 21115AH  21346.91668981 -.00005893  00000-0 -13357-3 0  9993,2 49755  53.2149 270.3095 0001316  57.1072 149.8890 15.40468970  2796,6822.861,93.478,445.624,443.828,0.0
49755.0,STARLINK-3210,PAYLOAD,2021-12-13 14:00:01,15.40447329,0.0001434,53.2153,267.1678,58.2258,247.9083,0.00063518,0.00025793,0.0,0 STARLINK-3210,1 49755U 21115AH  21347.58334491  .00025793  00000-0  63518-3 0  9996,2 49755  53.2153 267.1678 0001434  58.2258 247.9083 15.40447329  2082,6822.925,93.479,445.769,443.812,0.0
49755.0,STARLINK-3210,PAYLOAD,2021-12-13 22:00:00,15.40473741,0.00016,53.2155,265.5976,60.2374,295.4818,-0.00072401,-0.00030072,0.0,0 STARLINK-3210,1 49755U 21115AH  21347.91667824 -.00030072  00000-0 -72401-3 0  9991,2 49755  53.2155 265.5976 0001600  60.2374 295.4818 15.40473741  2131,6822.847,93.478,445.804,443.62,0.0
49755.0,STARLINK-3210,PAYLOAD,2021-12-14 06:00:02,15.40448965,0.0001710999999999,53.2156,264.0283,52.2399,353.1339,0.00070042,0.00028496,0.0,0 STARLINK-3210,1 49755U 21115AH  21348.25002315  .00028496  00000-0  70042-3 0  9991,2 49755  53.2156 264.0283 0001711  52.2399 353.1339 15.40448965  3005,6822.92,93.479,445.953,443.61800000000005,0.0
49755.0,STARLINK-3210,PAYLOAD,2021-12-14 14:00:01,15.40429105,0.0001499,53.2158,262.4558,57.8129,37.094,0.0010393,0.00042528,0.0,0 STARLINK-3210,1 49755U 21115AH  21348.58334491  .00042528  00000-0  10393-2 0  9994,2 49755  53.2158 262.4558 0001499  57.8129  37.0940 15.40429105  2245,6822.979,93.48,445.867,443.821,0.0
49755.0,STARLINK-3210,PAYLOAD,2021-12-14 22:00:00,15.40471705,0.0001581,53.216,260.886,55.7897,88.6844,-0.0011747,-0.00048423,0.0,0 STARLINK-3210,1 49755U 21115AH  21348.91667824 -.00048423  00000-0 -11747-2 0  9996,2 49755  53.2160 260.8860 0001581  55.7897  88.6844 15.40471705  3101,6822.853,93.478,445.797,443.639,0.0
49755.0,STARLINK-3210,PAYLOAD,2021-12-15 14:22:36,15.40447744,0.0001538,53.2157,257.6702,56.4132,274.2577,0.0011368,0.0004661,0.0,0 STARLINK-3210,1 49755U 21115AH  21349.59902778  .00046610  00000-0  11368-2 0  9994,2 49755  53.2157 257.6702 0001538  56.4132 274.2577 15.40447744  3212,6822.924,93.479,445.838,443.74,0.0
49755.0,STARLINK-3210,PAYLOAD,2021-12-15 22:00:01,15.40488476,0.0001491,53.2157,256.1745,51.6686,241.6433,-0.0013842,-0.00056955,0.0,0 STARLINK-3210,1 49755U 21115AH  21349.91668981 -.00056955  00000-0 -13842-2 0  9999,2 49755  53.2157 256.1745 0001491  51.6686 241.6433 15.40488476  2442,6822.804,93.477,445.686,443.651,0.0
49755.0,STARLINK-3210,PAYLOAD,2021-12-16 06:00:00,15.40460511,0.0001563,53.2152,254.6048,44.4512,298.402,0.00040122,0.0001613,0.0,0 STARLINK-3210,1 49755U 21115AH  21350.25001157  .00016130  00000-0  40122-3 0  9995,2 49755  53.2152 254.6048 0001563  44.4512 298.4020 15.40460511  3313,6822.886,93.479,445.818,443.685,0.0
49755.0,STARLINK-3210,PAYLOAD,2021-12-16 14:00:01,15.40437226,0.0001458,53.2151,253.0324,55.5926,336.8673,0.00124,0.00050889,0.0,0 STARLINK-3210,1 49755U 21115AH  21350.58334491  .00050889  00000-0  12400-2 0  9997,2 49755  53.2151 253.0324 0001458  55.5926 336.8673 15.40437226  2550,6822.955,93.48,445.815,443.825,0.0
49755.0,STARLINK-3210,PAYLOAD,2021-12-16 21:38:45,15.40472662,0.0001527,53.2154,251.532,48.3178,311.7958,9.563e-05,3.533e-05,0.0,0 STARLINK-3210,1 49755U 21115AH  21350.90191257  .00003533  00000-0  95630-4 0  9996,2 49755  53.2154 251.5320 0001527  48.3178 311.7958 15.40472662  2302,6822.85,93.478,445.757,443.673,0.0
49755.0,STARLINK-3210,PAYLOAD,2021-12-17 06:00:00,15.40458068,0.0001629,53.2146,249.8932,49.2467,82.3878,-0.0002202,-9.447e-05,0.0,0 STARLINK-3210,1 49755U 21115AH  21351.25001157 -.00009447  00000-0 -22020-3 0  9998,2 49755  53.2146 249.8932 0001629  49.2467  82.3878 15.40458068  3460,6822.893,93.479,445.87,443.647,0.0
49755.0,STARLINK-3210,PAYLOAD,2021-12-17 21:00:09,15.40459501,0.0001569,53.2154,246.9467,56.8394,303.2763,-1.8369e-05,-1.159e-05,0.0,0 STARLINK-3210,1 49755U 21115AH  21351.87510619 -.00001159  00000-0 -18369-4 0  9998,2 49755  53.2154 246.9467 0001569  56.8394 303.2763 15.40459501  2455,6822.889,93.479,445.825,443.684,0.0
49755.0,STARLINK-3210,PAYLOAD,2021-12-18 14:00:01,15.40417433,0.0001338,53.2145,243.6094,55.7628,274.1851,0.0018035,0.00074379,0.0,0 STARLINK-3210,1 49755U 21115AH  21352.58334491  .00074379  00000-0  18035-2 0  9999,2 49755  53.2145 243.6094 0001338  55.7628 274.1851 15.40417433  3674,6823.013000000001,93.481,445.791,443.965,0.0
49755.0,STARLINK-3210,PAYLOAD,2021-12-18 21:54:58,15.40461754,0.0001555,53.215,242.0558,54.5916,305.5235,7.3743e-05,2.63e-05,0.0,0 STARLINK-3210,1 49755U 21115AH  21352.91317898  .00002630  00000-0  73743-4 0  9998,2 49755  53.2150 242.0558 0001555  54.5916 305.5235 15.40461754  2619,6822.8830000000025,93.478,445.8080000000001,443.687,0.0
49755.0,STARLINK-3210,PAYLOAD,2021-12-19 06:00:00,15.40472433,0.0001516,53.2145,240.47,45.499,23.607,-0.00026745,-0.00011389,0.0,0 STARLINK-3210,1 49755U 21115AH  21353.25001157 -.00011389  00000-0 -26745-3 0  9996,2 49755  53.2145 240.4700 0001516  45.4990  23.6070 15.40472433  3771,6822.851,93.478,445.75,443.682,0.0
49755.0,STARLINK-3210,PAYLOAD,2021-12-19 14:00:01,15.40456057,0.0001440999999999,53.2147,238.8977,55.949,62.7641,0.00072723,0.00029613,0.0,0 STARLINK-3210,1 49755U 21115AH  21353.58334491  .00029613  00000-0  72723-3 0  9996,2 49755  53.2147 238.8977 0001441  55.9490  62.7641 15.40456057  3017,6822.899,93.479,445.74800000000016,443.781,0.0
49755.0,STARLINK-3210,PAYLOAD,2021-12-19 21:16:21,15.40484873,0.0001511,53.2148,237.4702,49.1257,310.988,0.00036515,0.00014653,0.0,0 STARLINK-3210,1 49755U 21115AH  21353.88636543  .00014653  00000-0  36515-3 0  9999,2 49755  53.2148 237.4702 0001511  49.1257 310.9880 15.40484873  2764,6822.814,93.477,445.71,443.648,0.0
49755.0,STARLINK-3210,PAYLOAD,2021-12-20 06:00:00,15.40494253,0.0001656,53.2145,235.758,48.6099,169.3109,-0.00043892,-0.0001843,0.0,0 STARLINK-3210,1 49755U 21115AH  21354.25001157 -.00018430  00000-0 -43892-3 0  9993,2 49755  53.2145 235.7580 0001656  48.6099 169.3109 15.40494253  3926,6822.7869999999975,93.476,445.781,443.522,0.0
